[{"OBJECT_NAME":"KUZGTU 1 (RS47S)","OBJECT_ID":"2023-091AV","EPOCH":"2026-03-09T22:22:51.965760","MEAN_MOTION":15.27481352,"ECCENTRICITY":0.0012896,"INCLINATION":97.5178,"RA_OF_ASC_NODE":132.5224,"ARG_OF_PERICENTER":89.3666,"MEAN_ANOMALY":270.9051,"EPHEMERIS_TYPE":0,"CLASSIFICATION_TYPE":"U","NORAD_CAT_ID":57217,"ELEMENT_SET_NO":999,"REV_AT_EPOCH":14921,"BSTAR":0.00057711473,"MEAN_MOTION_DOT":0.00015496,"MEAN_MOTION_DDOT":0},{"OBJECT_NAME":"STARLINK-31533","OBJECT_ID":"2024-071X","EPOCH":"2026-03-09T03:01:51.218400","MEAN_MOTION":15.275669,"ECCENTRICITY":4.807e-5,"INCLINATION":43.0048,"RA_OF_ASC_NODE":343.426,"ARG_OF_PERICENTER":318.9202,"MEAN_ANOMALY":41.1613,"EPHEMERIS_TYPE":0,"CLASSIFICATION_TYPE":"U","NORAD_CAT_ID":59505,"ELEMENT_SET_NO":999,"REV_AT_EPOCH":10811,"BSTAR":-8.6332291e-5,"MEAN_MOTION_DOT":-2.636e-5,"MEAN_MOTION_DDOT":0}]
